STARLINK-11167 [DTC]    
1 60061U 24113C   26201.32998739 -.00001056  00000+0 -38565-5 0  9990
2 60061  53.1596 257.3590 0001170  85.7782 274.3369 15.69713290120696
STARLINK-11166 [DTC]    
1 60062U 24113D   26201.38875213 -.00000871  00000+0 -23323-5 0  9998
2 60062  53.1600 257.0121 0001136  86.9236 273.1912 15.69713579120409
STARLINK-11165 [DTC]    
1 60063U 24113E   26201.44751348  .00000337  00000+0  76392-5 0  9997
2 60063  53.1582 256.6655 0001058  73.4927 286.6207 15.69711997120416
STARLINK-11169 [DTC]    
1 60064U 24113F   26201.37894444  .00000026  00000+0  50720-5 0  9997
2 60064  53.1597 256.9478 0001072  75.3610 284.7526 15.69703569120403
STARLINK-11102 [DTC]    
1 60065U 24113G   26201.37403927  .00000941  00000+0  12623-4 0  9995
2 60065  53.1584 256.9118 0000991  89.0773 271.0358 15.69701572120406
STARLINK-11141 [DTC]    
1 60066U 24113H   26201.43279712  .00000333  00000+0  76031-5 0  9995
2 60066  53.1586 256.5674 0001065  85.2399 274.8740 15.69712988120417
STARLINK-11153 [DTC]    
1 60067U 24113J   26201.42799689  .00000009  00000+0  49284-5 0  9995
2 60067  53.1594 257.2687 0000890  93.9103 266.2017 15.69708296120401
STARLINK-11170 [DTC]    
1 60068U 24113K   26201.42309306  .00001088  00000+0  13841-4 0  9996
2 60068  53.1578 257.2367 0001051  83.5228 276.5909 15.69707721120408
STARLINK-11171 [DTC]    
1 60069U 24113L   26201.41818556 -.00000341  00000+0  20394-5 0  9992
2 60069  53.1578 257.2037 0000618  76.9758 283.1329 15.69708993120407
STARLINK-11186 [DTC]    
1 60070U 24113M   26201.34961182  .00000460  00000+0  86510-5 0  9993
2 60070  53.1590 257.4842 0000922  76.0613 284.0507 15.69702619120809
STARLINK-11184 [DTC]    
1 60071U 24113N   26201.34470002  .00001087  00000+0  13820-4 0  9999
2 60071  53.1592 257.4911 0000932  83.7819 276.3305 15.69720993120392
STARLINK-32032          
1 60077U 24113U   26200.99097068  .00000358  00000+0  21725-4 0  9995
2 60077  53.1593 101.9112 0001353  97.3693 262.7464 15.34389824117526
KINEIS-1B               
1 60079U 24114A   26201.57115912  .00000347  00000+0  52052-4 0  9997
2 60079  97.9828 225.5972 0002547  25.9153 334.2186 14.80671325112347
KINEIS-1C               
1 60081U 24114C   26201.60478736  .00000342  00000+0  51387-4 0  9995
2 60081  97.9842 225.4873 0002564  88.1375 272.0131 14.80673114112326
KINEIS-1D               
1 60082U 24114D   26201.59300096  .00000311  00000+0  52161-4 0  9994
2 60082  97.9880 221.3647 0002980  90.1221 270.0331 14.76366427112059
KINEIS-1E               
1 60083U 24114E   26201.55494797  .00000400  00000+0  58799-4 0  9995
2 60083  97.8945 224.4476 0004232  98.7477 261.4215 14.80699036112329
KINEIS-1A               
1 60084U 24114F   26201.52085275  .00000358  00000+0  53305-4 0  9990
2 60084  97.8918 224.5059 0005100  49.3972 310.7684 14.80686581112324
ASTRA 1P (SES-24)       
1 60086U 24115A   26201.33694610  .00000116  00000+0  00000+0 0  9992
2 60086   0.0684 327.6537 0000599 173.6274 297.3300  1.00258288  7539
CATCH-1                 
1 60088U 24116A   26201.46649565  .00000750  00000+0  71191-4 0  9996
2 60088  28.9948 260.2498 0004319  46.2593 313.8358 14.84988450112614
SVOM                    
1 60089U 24116B   26201.46374319  .00000672  00000+0  64530-4 0  9991
2 60089  28.9956 267.1784 0005273  18.6430 341.4356 14.83604176112547
STARLINK-31441          
1 60091U 24117A   26201.52864344 -.00000024  00000+0  10429-4 0  9994
2 60091  53.1610 139.4712 0001325 102.4042 257.7109 15.34398023117238
STARLINK-32044          
1 60092U 24117B   26201.23863996  .00000319  00000+0  20571-4 0  9990
2 60092  53.1619 140.5051 0001323  80.1484 279.9668 15.34394310117193
STARLINK-31239          
1 60093U 24117C   26201.53075137  .00000432  00000+0  23928-4 0  9991
2 60093  53.1611 139.4852 0001251  90.3046 269.8100 15.34392306117236
STARLINK-32007          
1 60094U 24117D   26201.55591404 -.00001484  00000+0 -32792-4 0  9993
2 60094  53.1596 138.9306 0001316  93.3197 266.7957 15.34389704117244
STARLINK-32028          
1 60095U 24117E   26201.11888916  .00002300  00000+0  79207-4 0  9991
2 60095  53.1613 141.1822 0001243 101.1948 258.9194 15.34387705117172
STARLINK-32016          
1 60096U 24117F   26201.21768022  .00001517  00000+0  56005-4 0  9998
2 60096  53.1604 141.0866 0001154 100.9729 259.1404 15.34404567117189
STARLINK-32003          
1 60097U 24117G   26201.53495811  .00000076  00000+0  13385-4 0  9990
2 60097  53.1610 139.5088 0001273  90.3262 269.7887 15.34390522117234
STARLINK-32026          
1 60098U 24117H   26201.12518181  .00002511  00000+0  85403-4 0  9998
2 60098  53.1611 141.2191 0001001  85.5236 274.5881 15.34412815117178
STARLINK-31732          
1 60099U 24117J   26201.12730547  .00000604  00000+0  29003-4 0  9996
2 60099  53.1617 141.2277 0001204  89.0767 271.0374 15.34398847117170
STARLINK-31996          
1 60100U 24117K   26201.56011851  .00002166  00000+0  75249-4 0  9995
2 60100  53.1601 138.9546 0001620  89.3055 270.8133 15.34392861117241
