OBJECT_NAME,OBJECT_ID,EPOCH,MEAN_MOTION,ECCENTRICITY,INCLINATION,RA_OF_ASC_NODE,ARG_OF_PERICENTER,MEAN_ANOMALY,EPHEMERIS_TYPE,CLASSIFICATION_TYPE,NORAD_CAT_ID,ELEMENT_SET_NO,REV_AT_EPOCH,BSTAR,MEAN_MOTION_DOT,MEAN_MOTION_DDOT
STARLINK-11167 [DTC],2024-113C,2026-07-20T07:55:10.910496,15.69713290,.000117,53.1596,257.3590,85.7782,274.3369,0,U,60061,999,12069,-.3856477E-5,-.1056E-4,0
STARLINK-11166 [DTC],2024-113D,2026-07-20T09:19:48.184032,15.69713579,.00011365,53.1600,257.0121,86.9236,273.1912,0,U,60062,999,12040,-.2332292E-5,-.871E-5,0
STARLINK-11165 [DTC],2024-113E,2026-07-20T10:44:25.164672,15.69711997,.00010585,53.1582,256.6655,73.4927,286.6207,0,U,60063,999,12041,.7639182E-5,.337E-5,0
STARLINK-11169 [DTC],2024-113F,2026-07-20T09:05:40.799616,15.69703569,.00010721,53.1597,256.9478,75.3610,284.7526,0,U,60064,999,12040,.5071976E-5,.26E-6,0
STARLINK-11102 [DTC],2024-113G,2026-07-20T08:58:36.992928,15.69701572,.00009918,53.1584,256.9118,89.0773,271.0358,0,U,60065,999,12040,.12623247E-4,.941E-5,0
STARLINK-11141 [DTC],2024-113H,2026-07-20T10:23:13.671168,15.69712988,.0001065,53.1586,256.5674,85.2399,274.8740,0,U,60066,999,12041,.7603137E-5,.333E-5,0
STARLINK-11153 [DTC],2024-113J,2026-07-20T10:16:18.931296,15.69708296,.00008903,53.1594,257.2687,93.9103,266.2017,0,U,60067,999,12040,.4928363E-5,.9E-7,0
STARLINK-11170 [DTC],2024-113K,2026-07-20T10:09:15.240384,15.69707721,.00010516,53.1578,257.2367,83.5228,276.5909,0,U,60068,999,12040,.13841016E-4,.1088E-4,0
STARLINK-11171 [DTC],2024-113L,2026-07-20T10:02:11.232384,15.69708993,.00006188,53.1578,257.2037,76.9758,283.1329,0,U,60069,999,12040,.2039443E-5,-.341E-5,0
STARLINK-11186 [DTC],2024-113M,2026-07-20T08:23:26.461248,15.69702619,.0000922,53.1590,257.4842,76.0613,284.0507,0,U,60070,999,12080,.8651034E-5,.46E-5,0
STARLINK-11184 [DTC],2024-113N,2026-07-20T08:16:22.081728,15.69720993,.00009325,53.1592,257.4911,83.7819,276.3305,0,U,60071,999,12039,.13819612E-4,.1087E-4,0
STARLINK-32032,2024-113U,2026-07-19T23:46:59.866752,15.34389824,.00013538,53.1593,101.9112,97.3693,262.7464,0,U,60077,999,11752,.21724854E-4,.358E-5,0
KINEIS-1B,2024-114A,2026-07-20T13:42:28.147968,14.80671325,.00025479,97.9828,225.5972,25.9153,334.2186,0,U,60079,999,11234,.52051816E-4,.347E-5,0
KINEIS-1C,2024-114C,2026-07-20T14:30:53.627904,14.80673114,.00025648,97.9842,225.4873,88.1375,272.0131,0,U,60081,999,11232,.51387261E-4,.342E-5,0
KINEIS-1D,2024-114D,2026-07-20T14:13:55.282944,14.76366427,.00029802,97.9880,221.3647,90.1221,270.0331,0,U,60082,999,11205,.52161314E-4,.311E-5,0
KINEIS-1E,2024-114E,2026-07-20T13:19:07.504608,14.80699036,.00042324,97.8945,224.4476,98.7477,261.4215,0,U,60083,999,11232,.58799158E-4,.4E-5,0
KINEIS-1A,2024-114F,2026-07-20T12:30:01.677600,14.80686581,.00051005,97.8918,224.5059,49.3972,310.7684,0,U,60084,999,11232,.53304981E-4,.358E-5,0
ASTRA 1P (SES-24),2024-115A,2026-07-20T08:05:12.143040,1.00258288,.00005992,0.0684,327.6537,173.6274,297.3300,0,U,60086,999,753,0,.116E-5,0
CATCH-1,2024-116A,2026-07-20T11:11:45.224160,14.84988450,.00043193,28.9948,260.2498,46.2593,313.8358,0,U,60088,999,11261,.71190584E-4,.75E-5,0
SVOM,2024-116B,2026-07-20T11:07:47.411616,14.83604176,.00052735,28.9956,267.1784,18.6430,341.4356,0,U,60089,999,11254,.64530096E-4,.672E-5,0
STARLINK-31441,2024-117A,2026-07-20T12:41:14.793216,15.34398023,.00013254,53.1610,139.4712,102.4042,257.7109,0,U,60091,999,11723,.10428521E-4,-.24E-6,0
STARLINK-32044,2024-117B,2026-07-20T05:43:38.492544,15.34394310,.00013238,53.1619,140.5051,80.1484,279.9668,0,U,60092,999,11719,.20571258E-4,.319E-5,0
STARLINK-31239,2024-117C,2026-07-20T12:44:16.918368,15.34392306,.00012516,53.1611,139.4852,90.3046,269.8100,0,U,60093,999,11723,.23927971E-4,.432E-5,0
STARLINK-32007,2024-117D,2026-07-20T13:20:30.973056,15.34389704,.00013168,53.1596,138.9306,93.3197,266.7957,0,U,60094,999,11724,-.32791747E-4,-.1484E-4,0
STARLINK-32028,2024-117E,2026-07-20T02:51:12.023424,15.34387705,.00012438,53.1613,141.1822,101.1948,258.9194,0,U,60095,999,11717,.79207047E-4,.23E-4,0
STARLINK-32016,2024-117F,2026-07-20T05:13:27.571008,15.34404567,.0001154,53.1604,141.0866,100.9729,259.1404,0,U,60096,999,11718,.56005128E-4,.1517E-4,0
STARLINK-32003,2024-117G,2026-07-20T12:50:20.380704,15.34390522,.00012731,53.1610,139.5088,90.3262,269.7887,0,U,60097,999,11723,.13384502E-4,.76E-6,0
STARLINK-32026,2024-117H,2026-07-20T03:00:15.708384,15.34412815,.00010017,53.1611,141.2191,85.5236,274.5881,0,U,60098,999,11717,.85402779E-4,.2511E-4,0
STARLINK-31732,2024-117J,2026-07-20T03:03:19.192608,15.34398847,.0001204,53.1617,141.2277,89.0767,271.0374,0,U,60099,999,11717,.29002761E-4,.604E-5,0
STARLINK-31996,2024-117K,2026-07-20T13:26:34.239264,15.34392861,.00016203,53.1601,138.9546,89.3055,270.8133,0,U,60100,999,11724,.75248825E-4,.2166E-4,0
